     2.11           G: GLONASS NAV DATA                     RINEX VERSION / TYPE
gfzrnx-1.11-7352    FILE MERGE          20210304 001345 UTC PGM / RUN BY / DATE 
    18                  GPS                                 LEAP SECONDS        
                                                            END OF HEADER
18 21  3  3  2 15  0.0 6.845034658909e-05 9.094947017729e-13 8.100000000000e+03
    1.695076562500e+04 2.445745468140e+00 2.793967723846e-09 0.000000000000e+00
   -6.824444335938e+03 1.537990570068e-02 0.000000000000e+00-3.000000000000e+00
    1.784509179688e+04-2.314245223999e+00-2.793967723846e-09 0.000000000000e+00
18 21  3  3  2 45  0.0 6.845314055681e-05 9.094947017729e-13 9.900000000000e+03
    2.077520068359e+04 1.767956733704e+00 3.725290298462e-09 0.000000000000e+00
   -7.118416015625e+03-3.106307983398e-01 0.000000000000e+00-3.000000000000e+00
    1.304592675781e+04-2.983654022217e+00-1.862645149231e-09 0.000000000000e+00
18 21  3  3  3 15  0.0 6.845872849226e-05 9.094947017729e-13 1.170000000000e+04
    2.321668017578e+04 9.264430999756e-01 4.656612873077e-09 0.000000000000e+00
   -7.810328613281e+03-4.173507690430e-01 0.000000000000e+00-3.000000000000e+00
    7.242158691406e+03-3.423280715942e+00-1.862645149231e-09 0.000000000000e+00
18 21  3  3  3 45  0.0 6.843917071819e-05 9.094947017729e-13 9.000000000000e+02
    2.408023798731e+04 3.422272657002e-02-1.862645149231e-09 0.000000000000e+00
   -8.467876911025e+03-2.700563399523e-01-9.313225746155e-10-3.000000000000e+00
    8.808595716589e+02-3.599318434596e+00-1.862645149231e-09 0.000000000000e+00
18 21  3  3  4 15  0.0 6.843917071819e-05 9.094947017729e-13 9.000000000000e+02
    2.338152428152e+04-7.896309318843e-01-1.862645149231e-09 0.000000000000e+00
   -8.636029841000e+03 1.203592590813e-01-9.313225746155e-10-3.000000000000e+00
   -5.548440579309e+03-3.498106787643e+00-1.862645149231e-09 0.000000000000e+00
18 21  3  3  4 45  0.0 6.843917071819e-05 9.094947017729e-13 9.000000000000e+02
    2.134305162805e+04-1.438687139360e+00-1.862645149231e-09 0.000000000000e+00
   -7.921392548166e+03 6.982160069793e-01-9.313225746155e-10-3.000000000000e+00
   -1.155001126987e+04-3.127068746817e+00-1.862645149231e-09 0.000000000000e+00
18 21  3  3  5 15  0.0 6.843917071819e-05 9.094947017729e-13 9.000000000000e+02
    1.835397038414e+04-1.836298597927e+00-1.862645149231e-09 0.000000000000e+00
   -6.064268180858e+03 1.372341397652e+00-9.313225746155e-10-3.000000000000e+00
   -1.666050503183e+04-2.514353678787e+00-1.862645149231e-09 0.000000000000e+00
18 21  3  3  5 45  0.0 6.843917071819e-05 9.094947017729e-13 9.000000000000e+02
    1.490510572539e+04-1.947627333263e+00-1.862645149231e-09 0.000000000000e+00
   -2.990282147871e+03 2.030858734317e+00-9.313225746155e-10-3.000000000000e+00
   -2.048446137987e+04-1.706778144382e+00-1.862645149231e-09 0.000000000000e+00
18 21  3  3  6 15  0.0 6.843917071819e-05 9.094947017729e-13 9.000000000000e+02
    1.150787838630e+04-1.784858088408e+00-1.862645149231e-09 0.000000000000e+00
    1.168646040165e+03 2.559650760816e+00-9.313225746155e-10-3.000000000000e+00
   -2.272498575142e+04-7.663559226607e-01-1.862645149231e-09 0.000000000000e+00
18 21  3  3  6 45  0.0 6.843917071819e-05 9.094947017729e-13 9.000000000000e+02
    8.610782799465e+03-1.404653812976e+00-1.862645149231e-09 0.000000000000e+00
    6.087549440639e+03 2.861386976689e+00-9.313225746155e-10-3.000000000000e+00
   -2.320705641510e+04 2.343757217173e-01-1.862645149231e-09 0.000000000000e+00
18 21  3  3  7 15  0.0 6.843917071819e-05 9.094947017729e-13 9.000000000000e+02
    6.527241552903e+03-8.982293438657e-01-1.862645149231e-09 0.000000000000e+00
    1.129404124668e+04 2.871967154616e+00-9.313225746155e-10-3.000000000000e+00
   -2.189157536119e+04 1.217905153401e+00-1.862645149231e-09 0.000000000000e+00
18 21  3  3  7 45  0.0 6.843917071819e-05 9.094947017729e-13 9.000000000000e+02
    5.386850569875e+03-3.756479457236e-01-1.862645149231e-09 0.000000000000e+00
    1.623909074178e+04 2.571617829856e+00-9.313225746155e-10-3.000000000000e+00
   -1.887894137084e+04 2.107766529516e+00-1.862645149231e-09 0.000000000000e+00
18 21  3  3  8 15  0.0 6.843917071819e-05 9.094947017729e-13 9.000000000000e+02
    5.118202804869e+03 5.306784400710e-02-1.862645149231e-09 0.000000000000e+00
    2.038144191619e+04 1.988726263538e+00-9.313225746155e-10-3.000000000000e+00
   -1.440170537661e+04 2.834570066137e+00-1.862645149231e-09 0.000000000000e+00
18 21  3  3  8 45  0.0 6.843917071819e-05 9.094947017729e-13 9.000000000000e+02
    5.466223397970e+03 2.968439705290e-01-1.862645149231e-09 0.000000000000e+00
    2.327175356857e+04 1.195687197096e+00-9.313225746155e-10-3.000000000000e+00
   -8.806730568101e+03 3.341550358983e+00-1.862645149231e-09 0.000000000000e+00
18 21  3  3  9 15  0.0 6.843917071819e-05 9.094947017729e-13 9.000000000000e+02
    6.041120199243e+03 2.992652305535e-01-1.862645149231e-09 0.000000000000e+00
    2.462244308163e+04 2.973881882455e-01-9.313225746155e-10-3.000000000000e+00
   -2.528165587748e+03 3.589148268968e+00-1.862645149231e-09 0.000000000000e+00
18 21  3  3  9 45  0.0 6.843917071819e-05 9.094947017729e-13 9.000000000000e+02
    6.390644519779e+03 4.838562352726e-02-1.862645149231e-09 0.000000000000e+00
    2.435152367651e+04-5.857604565934e-01-9.313225746155e-10-3.000000000000e+00
    3.946635000426e+03 3.558203207928e+00-1.862645149231e-09 0.000000000000e+00
18 21  3  3 10 15  0.0 6.843917071819e-05 9.094947017729e-13 9.000000000000e+02
    6.083335255062e+03-4.210564883080e-01-1.862645149231e-09 0.000000000000e+00
    2.259309112839e+04-1.337376600032e+00-9.313225746155e-10-3.000000000000e+00
    1.011544781264e+04 3.251454329188e+00-1.862645149231e-09 0.000000000000e+00
18 21  3  3 10 45  0.0 6.843917071819e-05 9.094947017729e-13 9.000000000000e+02
    4.788531136445e+03-1.033387989173e+00-1.862645149231e-09 0.000000000000e+00
    1.967279000478e+04-1.863905053571e+00-9.313225746155e-10-3.000000000000e+00
    1.550058572517e+04 2.693220098513e+00-1.862645149231e-09 0.000000000000e+00
18 21  3  3 11 15  0.0 6.849411875010e-05 9.094947017729e-13 4.116000000000e+04
    2.329574707031e+03-1.685747146606e+00 1.862645149231e-09 0.000000000000e+00
    1.604469287109e+04-2.110043525696e+00 2.793967723846e-09-3.000000000000e+00
    1.968923632812e+04 1.925937652588e+00-9.313225746155e-10 0.000000000000e+00
18 21  3  3 11 45  0.0 6.849598139524e-05 9.094947017729e-13 4.230000000000e+04
   -1.242402343750e+03-2.261051177979e+00 1.862645149231e-09 0.000000000000e+00
    1.224541162109e+04-2.064658164978e+00 1.862645149231e-09-3.000000000000e+00
    2.235014550781e+04 1.011625289917e+00-1.862645149231e-09 0.000000000000e+00
18 21  3  3 12 15  0.0 6.849877536297e-05 9.094947017729e-13 4.410000000000e+04
   -5.700312988281e+03-2.654088020325e+00 9.313225746155e-10 0.000000000000e+00
    8.764812011719e+03-1.765814781189e+00 0.000000000000e+00-3.000000000000e+00
    2.328476171875e+04 2.028942108154e-02-1.862645149231e-09 0.000000000000e+00
18 21  3  3 12 45  0.0 6.850156933069e-05 9.094947017729e-13 4.590000000000e+04
   -1.063887841797e+04-2.784741401672e+00 0.000000000000e+00 0.000000000000e+00
    5.994784179688e+03-1.290692329407e+00 0.000000000000e+00-3.000000000000e+00
    2.242285693359e+04-9.716081619263e-01-2.793967723846e-09 0.000000000000e+00
18 21  3  3 13 15  0.0 6.850436329842e-05 9.094947017729e-13 4.770000000000e+04
   -1.554272070312e+04-2.612546920776e+00-9.313225746155e-10 0.000000000000e+00
    4.162094726562e+03-7.429075241089e-01-9.313225746155e-10-3.000000000000e+00
    1.983247753906e+04-1.887866973877e+00-2.793967723846e-09 0.000000000000e+00
18 21  3  3 13 45  0.0 6.850808858871e-05 9.094947017729e-13 4.950000000000e+04
   -1.986508935547e+04-2.143654823303e+00-1.862645149231e-09 0.000000000000e+00
    3.296281738281e+03-2.348365783691e-01-9.313225746155e-10-3.000000000000e+00
    1.571427587891e+04-2.658271789551e+00-2.793967723846e-09 0.000000000000e+00
18 21  3  3 14 15  0.0 6.851274520159e-05 9.094947017729e-13 5.130000000000e+04
   -2.311237841797e+04-1.430220603943e+00-3.725290298462e-09 0.000000000000e+00
    3.230990234375e+03 1.313428878784e-01-9.313225746155e-10-3.000000000000e+00
    1.038592041016e+04-3.223832130432e+00-1.862645149231e-09 0.000000000000e+00
18 21  3  3 14 45  0.0 6.843917071819e-05 9.094947017729e-13 9.000000000000e+02
   -2.491957364517e+04-5.650415605433e-01-1.862645149231e-09 0.000000000000e+00
    3.646929992790e+03 2.815042501968e-01-9.313225746155e-10-3.000000000000e+00
    4.277951369583e+03-3.540492211308e+00-1.862645149231e-09 0.000000000000e+00
18 21  3  3 15 15  0.0 6.843917071819e-05 9.094947017729e-13 9.000000000000e+02
   -2.511622816630e+04 3.432689579109e-01-1.862645149231e-09 0.000000000000e+00
    4.100451803116e+03 1.799923282116e-01-9.313225746155e-10-3.000000000000e+00
   -2.177649641153e+03-3.586011307177e+00-1.862645149231e-09 0.000000000000e+00
18 21  3  3 15 45  0.0 6.843917071819e-05 9.094947017729e-13 9.000000000000e+02
   -2.373124575062e+04 1.172965421180e+00-1.862645149231e-09 0.000000000000e+00
    4.149754818118e+03-1.619247947718e-01-9.313225746155e-10-3.000000000000e+00
   -8.465485648190e+03-3.355235043636e+00-1.862645149231e-09 0.000000000000e+00
18 21  3  3 16 15  0.0 6.843917071819e-05 9.094947017729e-13 9.000000000000e+02
   -2.100501567347e+04 1.817917362676e+00-1.862645149231e-09 0.000000000000e+00
    3.405780025604e+03-6.888785082429e-01-9.313225746155e-10-3.000000000000e+00
   -1.410074352655e+04-2.865541599373e+00-1.862645149231e-09 0.000000000000e+00
18 21  3  3 16 45  0.0 6.843917071819e-05 9.094947017729e-13 9.000000000000e+02
   -1.734399960346e+04 2.202209489981e+00-1.862645149231e-09 0.000000000000e+00
    1.612756351621e+03-1.310199982173e+00-9.313225746155e-10-3.000000000000e+00
   -1.864811403978e+04-2.154223916431e+00-1.862645149231e-09 0.000000000000e+00
